[
    {
        "CCSDS_OMM_VERS": "3.0",
        "COMMENT": "GENERATED VIA SPACE-TRACK.ORG API",
        "CREATION_DATE": "2025-04-01T17:48:34",
        "ORIGINATOR": "18 SPCS",
        "OBJECT_NAME": "COSMOS 2559 (GLONASS)",
        "OBJECT_ID": "2022-130A",
        "CENTER_NAME": "EARTH",
        "REF_FRAME": "TEME",
        "TIME_SYSTEM": "UTC",
        "MEAN_ELEMENT_THEORY": "SGP4",
        "EPOCH": "2025-04-01T00:13:14.067840",
        "MEAN_MOTION": "2.13101195",
        "ECCENTRICITY": "0.00051920",
        "INCLINATION": "64.5157",
        "RA_OF_ASC_NODE": "330.1326",
        "ARG_OF_PERICENTER": "225.6156",
        "MEAN_ANOMALY": "134.3984",
        "EPHEMERIS_TYPE": "0",
        "CLASSIFICATION_TYPE": "U",
        "NORAD_CAT_ID": "54031",
        "ELEMENT_SET_NO": "999",
        "REV_AT_EPOCH": "1926",
        "BSTAR": "0.00000000000000",
        "MEAN_MOTION_DOT": "-0.00000051",
        "MEAN_MOTION_DDOT": "0.0000000000000",
        "SEMIMAJOR_AXIS": "25508.089",
        "PERIOD": "675.735",
        "APOAPSIS": "19143.197",
        "PERIAPSIS": "19116.710",
        "OBJECT_TYPE": "PAYLOAD",
        "RCS_SIZE": "LARGE",
        "COUNTRY_CODE": "CIS",
        "LAUNCH_DATE": "2022-10-10",
        "SITE": "PKMTR",
        "DECAY_DATE": null,
        "FILE": "4687331",
        "GP_ID": "284594330",
        "TLE_LINE0": "0 COSMOS 2559 (GLONASS)",
        "TLE_LINE1": "1 54031U 22130A   25091.00919060 -.00000051  00000-0  00000-0 0  9990",
        "TLE_LINE2": "2 54031  64.5157 330.1326 0005192 225.6156 134.3984  2.13101195 19268"
    }
]